[{"OBJECT_NAME":"STARLINK-30478","OBJECT_ID":"2023-146W","EPOCH":"2026-03-09T22:00:01.999584","MEAN_MOTION":15.05945063,"ECCENTRICITY":0.00013264,"INCLINATION":42.9997,"RA_OF_ASC_NODE":311.5054,"ARG_OF_PERICENTER":285.7723,"MEAN_ANOMALY":206.7337,"EPHEMERIS_TYPE":0,"CLASSIFICATION_TYPE":"U","NORAD_CAT_ID":57911,"ELEMENT_SET_NO":999,"REV_AT_EPOCH":552,"BSTAR":0.11273641,"MEAN_MOTION_DOT":0.01842676,"MEAN_MOTION_DDOT":0},{"OBJECT_NAME":"SITRO-AIS-57","OBJECT_ID":"2025-313J","EPOCH":"2026-03-09T21:19:15.458304","MEAN_MOTION":15.21278824,"ECCENTRICITY":0.00157719,"INCLINATION":97.3995,"RA_OF_ASC_NODE":145.0956,"ARG_OF_PERICENTER":356.0145,"MEAN_ANOMALY":4.0962,"EPHEMERIS_TYPE":0,"CLASSIFICATION_TYPE":"U","NORAD_CAT_ID":67256,"ELEMENT_SET_NO":999,"REV_AT_EPOCH":1084,"BSTAR":0.00055394677,"MEAN_MOTION_DOT":0.00012366,"MEAN_MOTION_DDOT":0}]
